{
  "type": "FeatureCollection",
  "name": "Africa Energy Software Map reviewed deployments",
  "features": [
    {
      "type": "Feature",
      "id": "dep_001",
      "geometry": null,
      "properties": {
        "deployment_id": "dep_001",
        "product_id": "prod_001",
        "country_iso2": "NG",
        "subnational_area": "Abuja distribution area",
        "customer_disclosure": "named",
        "lifecycle_status": "active",
        "started_year": "2023",
        "location_precision": "utility_territory",
        "evidence_status": "independently_evidenced",
        "source_id": "src_3cbec379ee14aa70"
      }
    },
    {
      "type": "Feature",
      "id": "dep_002",
      "geometry": null,
      "properties": {
        "deployment_id": "dep_002",
        "product_id": "prod_002",
        "country_iso2": "NG",
        "subnational_area": "Abuja distribution area",
        "customer_disclosure": "named",
        "lifecycle_status": "active",
        "started_year": "2023",
        "location_precision": "utility_territory",
        "evidence_status": "independently_evidenced",
        "source_id": "src_3cbec379ee14aa70"
      }
    },
    {
      "type": "Feature",
      "id": "dep_003",
      "geometry": null,
      "properties": {
        "deployment_id": "dep_003",
        "product_id": "prod_004",
        "country_iso2": "NG",
        "subnational_area": "",
        "customer_disclosure": "named",
        "lifecycle_status": "active",
        "started_year": "2025",
        "location_precision": "country",
        "evidence_status": "public_source",
        "source_id": "src_91c1fac8b3e57eb7"
      }
    },
    {
      "type": "Feature",
      "id": "dep_004",
      "geometry": null,
      "properties": {
        "deployment_id": "dep_004",
        "product_id": "prod_004",
        "country_iso2": "NG",
        "subnational_area": "",
        "customer_disclosure": "undisclosed",
        "lifecycle_status": "active",
        "started_year": "2025",
        "location_precision": "country",
        "evidence_status": "public_source",
        "source_id": "src_91c1fac8b3e57eb7"
      }
    },
    {
      "type": "Feature",
      "id": "dep_0fd414076188d885",
      "geometry": null,
      "properties": {
        "deployment_id": "dep_0fd414076188d885",
        "product_id": "prod_47d2aba604b42faf",
        "country_iso2": "BJ",
        "subnational_area": "",
        "customer_disclosure": "named",
        "lifecycle_status": "active",
        "started_year": "2024",
        "location_precision": "country",
        "evidence_status": "provider_claim_only",
        "source_id": "src_c7616caa46f7a0c2"
      }
    },
    {
      "type": "Feature",
      "id": "dep_3962898e06c0b969",
      "geometry": null,
      "properties": {
        "deployment_id": "dep_3962898e06c0b969",
        "product_id": "prod_f3d9dc4a77ea4cab",
        "country_iso2": "MA",
        "subnational_area": "",
        "customer_disclosure": "named",
        "lifecycle_status": "historical",
        "started_year": "",
        "location_precision": "country",
        "evidence_status": "provider_claim_only",
        "source_id": "src_0b7158369b815d9f"
      }
    },
    {
      "type": "Feature",
      "id": "dep_3bf37cad1e299f2e",
      "geometry": null,
      "properties": {
        "deployment_id": "dep_3bf37cad1e299f2e",
        "product_id": "prod_65cb59d227c4267f",
        "country_iso2": "BJ",
        "subnational_area": "",
        "customer_disclosure": "named",
        "lifecycle_status": "active",
        "started_year": "2024",
        "location_precision": "country",
        "evidence_status": "provider_claim_only",
        "source_id": "src_c7616caa46f7a0c2"
      }
    },
    {
      "type": "Feature",
      "id": "dep_44d402bf3aac6e76",
      "geometry": null,
      "properties": {
        "deployment_id": "dep_44d402bf3aac6e76",
        "product_id": "prod_63cceeebf437dc69",
        "country_iso2": "ZA",
        "subnational_area": "",
        "customer_disclosure": "named",
        "lifecycle_status": "pilot",
        "started_year": "2024",
        "location_precision": "country",
        "evidence_status": "customer_confirmed",
        "source_id": "src_d4d68c56788ce4d7"
      }
    },
    {
      "type": "Feature",
      "id": "dep_4d45ed97e1038e6d",
      "geometry": null,
      "properties": {
        "deployment_id": "dep_4d45ed97e1038e6d",
        "product_id": "prod_faed4459e7d6ab27",
        "country_iso2": "NG",
        "subnational_area": "",
        "customer_disclosure": "named",
        "lifecycle_status": "active",
        "started_year": "",
        "location_precision": "country",
        "evidence_status": "provider_claim_only",
        "source_id": "src_fdebbdff203ee17c"
      }
    },
    {
      "type": "Feature",
      "id": "dep_5dafb03405e9b7a4",
      "geometry": null,
      "properties": {
        "deployment_id": "dep_5dafb03405e9b7a4",
        "product_id": "prod_a4f1a4a52c37c33c",
        "country_iso2": "ZM",
        "subnational_area": "",
        "customer_disclosure": "named",
        "lifecycle_status": "active",
        "started_year": "2022",
        "location_precision": "country",
        "evidence_status": "provider_claim_only",
        "source_id": "src_36ff3d019dab7c6f"
      }
    },
    {
      "type": "Feature",
      "id": "dep_621d5c7586b993f8",
      "geometry": null,
      "properties": {
        "deployment_id": "dep_621d5c7586b993f8",
        "product_id": "prod_83e8647b12c0f40a",
        "country_iso2": "SO",
        "subnational_area": "",
        "customer_disclosure": "named",
        "lifecycle_status": "historical",
        "started_year": "2024",
        "location_precision": "country",
        "evidence_status": "independently_evidenced",
        "source_id": "src_a1861482fff6a50d"
      }
    },
    {
      "type": "Feature",
      "id": "dep_6c7d4295f3f84919",
      "geometry": null,
      "properties": {
        "deployment_id": "dep_6c7d4295f3f84919",
        "product_id": "prod_3464ecbd2a2298cc",
        "country_iso2": "UG",
        "subnational_area": "",
        "customer_disclosure": "named",
        "lifecycle_status": "active",
        "started_year": "2018",
        "location_precision": "country",
        "evidence_status": "provider_claim_only",
        "source_id": "src_1aba15c2ac9250fc"
      }
    },
    {
      "type": "Feature",
      "id": "dep_8ba702b9e523b312",
      "geometry": null,
      "properties": {
        "deployment_id": "dep_8ba702b9e523b312",
        "product_id": "prod_14d47cbe194106c4",
        "country_iso2": "ML",
        "subnational_area": "",
        "customer_disclosure": "named",
        "lifecycle_status": "active",
        "started_year": "2023",
        "location_precision": "country",
        "evidence_status": "provider_claim_only",
        "source_id": "src_2f4a7e763bb7e671"
      }
    },
    {
      "type": "Feature",
      "id": "dep_91df12effd6080a3",
      "geometry": null,
      "properties": {
        "deployment_id": "dep_91df12effd6080a3",
        "product_id": "prod_84787f6a75dff4dd",
        "country_iso2": "NG",
        "subnational_area": "",
        "customer_disclosure": "named",
        "lifecycle_status": "active",
        "started_year": "",
        "location_precision": "country",
        "evidence_status": "provider_claim_only",
        "source_id": "src_d151cbedc6c4759e"
      }
    },
    {
      "type": "Feature",
      "id": "dep_9f93d6392cac38f3",
      "geometry": null,
      "properties": {
        "deployment_id": "dep_9f93d6392cac38f3",
        "product_id": "prod_bc70438d15454ac9",
        "country_iso2": "BJ",
        "subnational_area": "",
        "customer_disclosure": "named",
        "lifecycle_status": "active",
        "started_year": "2024",
        "location_precision": "country",
        "evidence_status": "provider_claim_only",
        "source_id": "src_c7616caa46f7a0c2"
      }
    },
    {
      "type": "Feature",
      "id": "dep_a7c8d5b7c82274d7",
      "geometry": null,
      "properties": {
        "deployment_id": "dep_a7c8d5b7c82274d7",
        "product_id": "prod_3e36972ea2d29b21",
        "country_iso2": "ZA",
        "subnational_area": "",
        "customer_disclosure": "named",
        "lifecycle_status": "historical",
        "started_year": "2012",
        "location_precision": "country",
        "evidence_status": "provider_claim_only",
        "source_id": "src_02027067a2b6f47d"
      }
    },
    {
      "type": "Feature",
      "id": "dep_c12f3d3769ac31c2",
      "geometry": null,
      "properties": {
        "deployment_id": "dep_c12f3d3769ac31c2",
        "product_id": "prod_27402d8bb06c6333",
        "country_iso2": "NG",
        "subnational_area": "",
        "customer_disclosure": "named",
        "lifecycle_status": "active",
        "started_year": "",
        "location_precision": "country",
        "evidence_status": "provider_claim_only",
        "source_id": "src_4319a4161634cca0"
      }
    },
    {
      "type": "Feature",
      "id": "dep_c4d486068f0ae346",
      "geometry": null,
      "properties": {
        "deployment_id": "dep_c4d486068f0ae346",
        "product_id": "prod_7ec0014d7e86dba9",
        "country_iso2": "ZA",
        "subnational_area": "",
        "customer_disclosure": "named",
        "lifecycle_status": "active",
        "started_year": "2025",
        "location_precision": "country",
        "evidence_status": "independently_evidenced",
        "source_id": "src_8ad2a6fd5ad32af1"
      }
    },
    {
      "type": "Feature",
      "id": "dep_cc875ff369c6e798",
      "geometry": null,
      "properties": {
        "deployment_id": "dep_cc875ff369c6e798",
        "product_id": "prod_3b9526941c4a04c6",
        "country_iso2": "NG",
        "subnational_area": "",
        "customer_disclosure": "named",
        "lifecycle_status": "active",
        "started_year": "",
        "location_precision": "country",
        "evidence_status": "provider_claim_only",
        "source_id": "src_7de3c1f07aa1a7fc"
      }
    },
    {
      "type": "Feature",
      "id": "dep_ef40e913768f8074",
      "geometry": null,
      "properties": {
        "deployment_id": "dep_ef40e913768f8074",
        "product_id": "prod_7b787a3f1eec1e39",
        "country_iso2": "KE",
        "subnational_area": "",
        "customer_disclosure": "undisclosed",
        "lifecycle_status": "active",
        "started_year": "",
        "location_precision": "country",
        "evidence_status": "provider_claim_only",
        "source_id": "src_2036ee97788b09bc"
      }
    }
  ]
}
