{
  "type": "FeatureCollection",
  "name": "Africa Energy Software Map reviewed deployments",
  "features": [
    {
      "type": "Feature",
      "id": "dep_001",
      "geometry": null,
      "properties": {
        "deployment_id": "dep_001",
        "product_id": "prod_001",
        "country_iso2": "NG",
        "subnational_area": "Abuja distribution area",
        "customer_disclosure": "named",
        "lifecycle_status": "active",
        "started_year": "2023",
        "location_precision": "utility_territory",
        "evidence_status": "independently_evidenced",
        "source_id": "src_3cbec379ee14aa70"
      }
    },
    {
      "type": "Feature",
      "id": "dep_002",
      "geometry": null,
      "properties": {
        "deployment_id": "dep_002",
        "product_id": "prod_002",
        "country_iso2": "NG",
        "subnational_area": "Abuja distribution area",
        "customer_disclosure": "named",
        "lifecycle_status": "active",
        "started_year": "2023",
        "location_precision": "utility_territory",
        "evidence_status": "independently_evidenced",
        "source_id": "src_3cbec379ee14aa70"
      }
    },
    {
      "type": "Feature",
      "id": "dep_003",
      "geometry": null,
      "properties": {
        "deployment_id": "dep_003",
        "product_id": "prod_004",
        "country_iso2": "NG",
        "subnational_area": "",
        "customer_disclosure": "named",
        "lifecycle_status": "active",
        "started_year": "2025",
        "location_precision": "country",
        "evidence_status": "public_source",
        "source_id": "src_91c1fac8b3e57eb7"
      }
    },
    {
      "type": "Feature",
      "id": "dep_004",
      "geometry": null,
      "properties": {
        "deployment_id": "dep_004",
        "product_id": "prod_004",
        "country_iso2": "NG",
        "subnational_area": "",
        "customer_disclosure": "undisclosed",
        "lifecycle_status": "active",
        "started_year": "2025",
        "location_precision": "country",
        "evidence_status": "public_source",
        "source_id": "src_91c1fac8b3e57eb7"
      }
    }
  ]
}
